FENGYUN 1C DEB          
1 29852U 99025EW  22244.45640597  .00001112  00000+0  78463-3 0  9990
2 29852  99.3128 210.7081 0153619 186.0369 296.8782 13.94648837792134
